ONEWEB-0056             
1 45159U 20008AE  25198.23597133 -.00000403  00000+0 -11911-2 0  9995
2 45159  87.8823 103.0669 0001978  78.9257 281.2092 13.10373271264318
ONEWEB-0057             
1 45160U 20008AF  25198.24346675  .00000006  00000+0 -20500-4 0  9995
2 45160  87.8822 103.0788 0001785  81.0753 279.0577 13.10376264264489
ONEWEB-0058             
1 45161U 20008AG  25198.23031450 -.00000496  00000+0 -14560-2 0  9998
2 45161  87.8816 103.0929 0002038  77.1230 283.0125 13.10374882264554
ONEWEB-0059             
1 45162U 20008AH  25198.22685626 -.00000564  00000+0 -16529-2 0  9991
2 45162  87.8820 103.0919 0002016  76.4104 283.7248 13.10373951264455
ONEWEB-0062             
1 45163U 20008AJ  25198.25260160  .00000472  00000+0  13170-2 0  9992
2 45163  87.8818 103.0666 0002058  67.3497 292.7848 13.10376015264328
ONEWEB-0065             
1 45164U 20008AK  25198.23186068 -.00002882  00000+0 -82978-2 0  9996
2 45164  87.8821 103.0944 0001724  80.9105 279.2217 13.10355261264014
ONEWEB-0066             
1 45424U 20020A   25198.20386917  .00000140  00000+0  35930-3 0  9991
2 45424  87.8826  87.8307 0002089  86.8747 273.2620 13.11418929258772
ONEWEB-0067             
1 45425U 20020B   25198.62279003  .00000026  00000+0  37743-4 0  9993
2 45425  87.8808  87.6595 0001886  84.9068 275.2275 13.11414350258883
